ONEWEB-0012             
1 44057U 19010A   26181.17265093  .00000065  00000+0  13536-3 0  9993
2 44057  87.9086 226.2064 0001738  85.7972 274.3357 13.16594888353273
ONEWEB-0010             
1 44058U 19010B   26182.10994691  .00000149  00000+0  35663-3 0  9999
2 44058  87.9087 226.0157 0002044 104.3060 255.8298 13.16595515353448
ONEWEB-0008             
1 44059U 19010C   26182.13527449  .00000069  00000+0  14751-3 0  9992
2 44059  87.9087 226.0062 0002296  91.8707 268.2687 13.16593141353567
ONEWEB-0007             
1 44060U 19010D   26181.95330425  .00000131  00000+0  31474-3 0  9990
2 44060  87.8996 256.4786 0001717 105.5162 254.6158 13.15549162353185
ONEWEB-0006             
1 44061U 19010E   26181.95727938  .00000135  00000+0  32580-3 0  9993
2 44061  87.9004 256.4438 0002149 101.3453 258.7919 13.15550050353232
ONEWEB-0011             
1 44062U 19010F   26181.92557193 -.00000094  00000+0 -28451-3 0  9993
2 44062  87.9007 256.4598 0002216 101.2408 258.8972 13.15548491353222
ONEWEB-0013             
1 45131U 20008A   26182.07683321  .00000700  00000+0  19958-2 0  9993
2 45131  87.8511  50.0215 0001617  48.3853 311.7412 13.09461335307885
ONEWEB-0017             
1 45132U 20008B   26182.12592662  .00000527  00000+0  14742-2 0  9990
2 45132  87.8817  33.4915 0001858  92.3696 267.7644 13.10371822309778
ONEWEB-0020             
1 45133U 20008C   26182.09533662 -.00000050  00000+0 -17965-3 0  9996
2 45133  87.8827  33.4968 0001809  84.7074 275.4260 13.10375722310167
ONEWEB-0021             
1 45134U 20008D   26182.11061416  .00000612  00000+0  17175-2 0  9997
2 45134  87.8819  33.5086 0001703  85.6005 274.5317 13.10375774310472
ONEWEB-0023             
1 45136U 20008F   26182.12166263  .00000673  00000+0  18922-2 0  9994
2 45136  87.8824  33.4891 0001888  80.9579 279.1762 13.10375327309906
ONEWEB-0024             
1 45137U 20008G   26182.09376438 -.00000065  00000+0 -22365-3 0  9992
2 45137  87.8835  33.4877 0001748  87.3900 272.7427 13.10374798310064
ONEWEB-0025             
1 45138U 20008H   26182.09349409 -.00000067  00000+0 -22929-3 0  9999
2 45138  87.8833  33.4783 0002292  85.8853 274.2536 13.10374865310393
ONEWEB-0026             
1 45139U 20008J   26182.04456986 -.00000352  00000+0 -10295-2 0  9993
2 45139  87.8878  18.3091 0001941  92.4000 267.7350 13.11417686312927
ONEWEB-0028             
1 45140U 20008K   26182.09628520 -.00000165  00000+0 -50108-3 0  9995
2 45140  87.8872  18.3062 0001583  69.4510 290.6788 13.11413943310440
ONEWEB-0032             
1 45141U 20008L   26182.12774487  .00000389  00000+0  10781-2 0  9992
2 45141  87.8816  33.4929 0001768  69.4573 290.6744 13.10368739310121
ONEWEB-0033             
1 45142U 20008M   26182.10212539  .00000174  00000+0  46149-3 0  9996
2 45142  87.8820  33.5048 0001975 101.0476 259.0874 13.10375679310039
ONEWEB-0035             
1 45143U 20008N   26182.12262997  .00000233  00000+0  63128-3 0  9994
2 45143  87.8818  33.4931 0001845  90.6444 269.4895 13.10371371309762
ONEWEB-0036             
1 45144U 20008P   26182.10029762  .00000270  00000+0  73682-3 0  9991
2 45144  87.8838  33.5134 0001820  78.9353 281.1979 13.10370848310182
ONEWEB-0038             
1 45145U 20008Q   26182.05488811  .00000090  00000+0  21709-3 0  9993
2 45145  87.8895  18.3175 0000851 155.6360 204.4808 13.11418319312140
ONEWEB-0039             
1 45146U 20008R   26182.10552985  .00000541  00000+0  15143-2 0  9999
2 45146  87.8822  33.4944 0001576  68.6681 291.4615 13.10375575309982
ONEWEB-0040             
1 45147U 20008S   26182.09872058  .00000199  00000+0  53324-3 0  9997
2 45147  87.8821  33.5064 0002032  78.4682 281.6673 13.10374686309688
ONEWEB-0043             
1 45149U 20008U   26182.10055845  .00003966  00000+0  11324-1 0  9995
2 45149  87.8829  33.4950 0001500  69.0039 291.1249 13.10351333310009
ONEWEB-0044             
1 45150U 20008V   26182.12932181  .00000299  00000+0  82033-3 0  9999
2 45150  87.8822  33.4900 0001804  80.6516 279.4815 13.10371691310305
ONEWEB-0045             
1 45151U 20008W   26182.04965979 -.00000192  00000+0 -57840-3 0  9994
2 45151  87.8889  18.3005 0001710  86.3915 273.7409 13.11418438312220
ONEWEB-0047             
1 45152U 20008X   26182.12235644  .00000281  00000+0  77000-3 0  9990
2 45152  87.8826  33.4907 0001696  91.6667 268.4654 13.10371474310023
ONEWEB-0048             
1 45153U 20008Y   26182.11741067  .00000679  00000+0  19083-2 0  9998
2 45153  87.8819  33.5113 0001759  88.7092 271.4237 13.10374983309639
ONEWEB-0049             
1 45154U 20008Z   26182.12065459  .00000586  00000+0  16429-2 0  9992
2 45154  87.8814  33.5002 0002111  77.3514 282.7849 13.10375405309856
ONEWEB-0051             
1 45155U 20008AA  26182.04797378 -.00000232  00000+0 -68963-3 0  9997
2 45155  87.8881  18.3074 0001826  87.7155 272.4182 13.11418917312902
ONEWEB-0052             
1 45156U 20008AB  26182.06496810 -.00000302  00000+0 -90207-3 0  9991
2 45156  87.8819  33.4986 0002020  75.6277 284.5075 13.10372009309756
ONEWEB-0053             
1 45157U 20008AC  26182.09702877  .00000040  00000+0  78961-4 0  9999
2 45157  87.8820  33.5126 0001803  70.7658 289.3665 13.10374612309731
